[{"OBJECT_NAME":"GRUS-1E","OBJECT_ID":"2021-022D","EPOCH":"2026-03-09T21:59:56.793984","MEAN_MOTION":14.99580708,"ECCENTRICITY":0.00128752,"INCLINATION":97.5572,"RA_OF_ASC_NODE":316.384,"ARG_OF_PERICENTER":314.1526,"MEAN_ANOMALY":45.8638,"EPHEMERIS_TYPE":0,"CLASSIFICATION_TYPE":"U","NORAD_CAT_ID":47935,"ELEMENT_SET_NO":999,"REV_AT_EPOCH":27107,"BSTAR":0.00017718433,"MEAN_MOTION_DOT":2.125e-5,"MEAN_MOTION_DDOT":0},{"OBJECT_NAME":"CZ-2C R\/B","OBJECT_ID":"2021-055C","EPOCH":"2026-03-09T16:47:26.920896","MEAN_MOTION":14.88109627,"ECCENTRICITY":0.00672888,"INCLINATION":35.0695,"RA_OF_ASC_NODE":218.1603,"ARG_OF_PERICENTER":136.1858,"MEAN_ANOMALY":224.4211,"EPHEMERIS_TYPE":0,"CLASSIFICATION_TYPE":"U","NORAD_CAT_ID":48862,"ELEMENT_SET_NO":999,"REV_AT_EPOCH":25639,"BSTAR":0.00028201568,"MEAN_MOTION_DOT":2.727e-5,"MEAN_MOTION_DDOT":0}]
